[{"OBJECT_NAME":"CYGFM03","OBJECT_ID":"2016-078H","EPOCH":"2026-03-09T23:11:20.561280","MEAN_MOTION":15.54861223,"ECCENTRICITY":0.00057526,"INCLINATION":34.9405,"RA_OF_ASC_NODE":169.5167,"ARG_OF_PERICENTER":310.9342,"MEAN_ANOMALY":49.0883,"EPHEMERIS_TYPE":0,"CLASSIFICATION_TYPE":"U","NORAD_CAT_ID":41891,"ELEMENT_SET_NO":999,"REV_AT_EPOCH":51349,"BSTAR":0.00042675413,"MEAN_MOTION_DOT":0.0002949,"MEAN_MOTION_DDOT":0},{"OBJECT_NAME":"STARLINK-1420","OBJECT_ID":"2020-035AQ","EPOCH":"2026-03-10T00:00:02.999808","MEAN_MOTION":15.53743401,"ECCENTRICITY":0.00043485,"INCLINATION":53.0536,"RA_OF_ASC_NODE":20.9202,"ARG_OF_PERICENTER":112.4673,"MEAN_ANOMALY":249.9349,"EPHEMERIS_TYPE":0,"CLASSIFICATION_TYPE":"U","NORAD_CAT_ID":45695,"ELEMENT_SET_NO":999,"REV_AT_EPOCH":587,"BSTAR":0.0013975342,"MEAN_MOTION_DOT":0.00091715,"MEAN_MOTION_DDOT":0}]
